15P/Finlay,e,6.7973,13.7209,347.8443,3.503527,0.1502955,0.71686595,274.3827,12/22.0/2019,2000,g 12.0,4.0
# From MPC 92276
16P/Brooks,e,3.0051,138.9894,245.1419,3.659563,0.1407863,0.48813232,292.0411,12/22.0/2019,2000,g  7.5,10.0
# From MPC114607
17P/Holmes,e,19.0226,326.6613,24.5756,3.635242,0.1422015,0.42825016,299.4092,12/22.0/2019,2000,g 10.0,6.0
# From MPC 92984
19P/Borrelly,e,29.7332,74.6348,351.8084,3.598390,0.1443916,0.64032382,248.5753,12/22.0/2019,2000,g  4.5,10.0
# From MPC111773
21P/Giacobini-Zinner,e,32.0033,195.3767,172.8489,3.496490,0.1507494,0.71050239,70.5052,12/22.0/2019,2000,g  9.0,6.0
# From MPC 94283
22P/Kopff,e,4.7414,120.8359,162.9389,3.443648,0.1542325,0.54881941,234.0018,12/22.0/2019,2000,g  3.0,10.4
# From MPC 14747
23P/Brorsen-Metcalf,e,19.1622,312.3039,128.9395,16.95768,0.0141141,0.97090342,0.0000,08/17.9907/1989,2000,g 10.0,6.0
# From MPC110085
24P/Schaumasse,e,11.7306,79.5864,57.7464,4.070353,0.1200206,0.70696192,91.7344,12/22.0/2019,2000,g  6.5,14.0
# From MPC 94674
26P/Grigg-Skjellerup,e,22.4478,211.5346,2.1944,3.013776,0.1883812,0.64079814,84.0633,12/22.0/2019,2000,g 12.0,16.0
# From MPC 78188
27P/Crommelin,e,29.1100,250.5732,196.0172,9.193360,0.0353584,0.91790723,108.6007,12/22.0/2019,2000,g 12.0,8.0
# From MPC114607
28P/Neujmin,e,14.3116,346.3468,347.4394,6.967698,0.0535883,0.77354495,336.1002,12/22.0/2019,2000,g  8.5,6.0
# From MPEC 2019-VB6
29P/Schwassmann-Wachmann,e,9.3671,312.3827,47.9772,6.030257,0.0665580,0.04366656,19.0736,12/22.0/2019,2000,g  4.0,4.0
# From MPC110085
30P/Reinmuth,e,8.2905,119.0744,13.1832,3.750990,0.1356704,0.51077067,115.3784,12/22.0/2019,2000,g  9.5,6.0
# From MPC108597
31P/Schwassmann-Wachmann,e,4.5472,114.1127,18.3272,4.242876,0.1127752,0.19268702,19.0616,12/22.0/2019,2000,g  5.0,8.0
# From MPC 92276
32P/Comas Sola,e,9.9438,57.6601,53.3058,4.498836,0.1032890,0.55670929,195.5136,12/22.0/2019,2000,g  6.5,8.0
# From MPEC 2013-O31
33P/Daniel,e,22.3649,66.3732,20.6448,4.079370,0.1196229,0.45383640,146.1994,12/22.0/2019,2000,g 10.0,12.0
# From  15, 452
35P/Herschel-Rigollet,e,64.481,356.232,29.137,28.5702,0.006454,0.9733241,0.000,12/25.6885/2091,2000,g  9.0,4.0
# From MPC105240
36P/Whipple,e,9.9529,181.8638,200.7554,4.129822,0.1174376,0.26832506,341.0259,12/22.0/2019,2000,g  8.5,6.0
# From MPEC 2018-HA5
37P/Forbes,e,8.9564,314.5704,330.0521,3.458521,0.1532387,0.53418298,91.4495,12/22.0/2019,2000,g 10.5,4.8
# From MPEC 2018-S50
38P/Stephan-Oterma,e,18.3534,77.9980,359.5624,11.26850,0.0260558,0.85905161,10.5804,12/22.0/2019,2000,g  3.5,12.0
# From MPC115887
39P/Oterma,e,1.5610,299.2544,94.7756,7.412075,0.0488421,0.22352709,299.6418,12/22.0/2019,2000,g  7.0,6.0
# From MPC100283
40P/Vaisala,e,11.4719,133.7929,47.4635,4.949699,0.0895026,0.63030196,166.8168,12/22.0/2019,2000,g  5.5,12.0
# From MPC105240
41P/Tuttle-Giacobini-Kresak,e,9.2219,141.0091,62.2563,3.085608,0.1818415,0.66052380,178.8538,12/22.0/2019,2000,g 10.0,16.0
# From MPC 94283
42P/Neujmin,e,3.9879,150.2056,147.1389,4.873057,0.0916224,0.58536503,157.3024,12/22.0/2019,2000,g 13.0,6.0
# From MPC102956
43P/Wolf-Harrington,e,9.5060,244.7928,223.7747,4.296373,0.1106754,0.44358942,132.9244,12/22.0/2019,2000,g  8.0,6.0
# From MPC 89313
44P/Reinmuth,e,5.8982,286.4823,58.1224,3.689058,0.1391012,0.42689626,241.2364,12/22.0/2019,2000,g  8.3,6.0
# From MPC103849
45P/Honda-Mrkos-Pajdusakova,e,4.3264,87.6928,327.9897,3.049081,0.1851189,0.81793699,201.5875,12/22.0/2019,2000,g 13.5,8.0
# From MPC114607
46P/Wirtanen,e,11.7449,82.1530,356.3660,3.091891,0.1812875,0.65855132,67.8198,12/22.0/2019,2000,g 14.0,6.0
# From NK 2718
47P/Ashbrook-Jackson,e,13.0315,356.9368,357.6056,4.125811,0.1176089,0.31764697,108.7679,12/22.0/2019,2000,g  9.0,4.0
# From MPEC 2015-M77
48P/Johnson,e,12.2077,110.1272,216.6013,3.499974,0.1505244,0.42724609,74.7606,12/22.0/2019,2000,g  9.0,4.0
# From MPEC 2015-M77
49P/Arend-Rigaux,e,19.0443,118.8054,332.9492,3.569484,0.1461490,0.59904274,76.6734,12/22.0/2019,2000,g  9.0,4.0
# From MPEC 2015-S97
50P/Arend,e,19.0962,355.1535,49.3713,4.089732,0.1191686,0.52846317,168.6139,12/22.0/2019,2000,g  9.5,6.0
# From NK 3013
51P-A/Harrington,e,5.4254,83.6776,269.2309,3.708836,0.1379900,0.54273121,219.9015,12/22.0/2019,2000,g 16.0,8.0
# From NK 3014
51P-A/Harrington,e,5.4247,83.6932,269.1916,3.709861,0.1379328,0.54280287,219.6586,12/22.0/2019,2000,g 10.0,8.0
# From NK 3014
51P-A/Harrington,e,5.4247,83.6932,269.1916,3.709843,0.1379338,0.54279979,219.6616,12/22.0/2019,2000,g 10.0,8.0
# From MPEC 2015-L08
51P-D/Harrington,e,5.4261,83.6832,269.1810,3.708926,0.1379850,0.54274531,219.8979,12/22.0/2019,2000,g 16.0,8.0
# From MPEC 2015-L08
51P-D/Harrington,e,5.4261,83.6821,269.1818,3.708914,0.1379857,0.54274590,219.9028,12/22.0/2019,2000,g 16.0,8.0
# From NK 3013
51P-D/Harrington,e,5.4254,83.6780,269.2306,3.708835,0.1379900,0.54273139,219.9017,12/22.0/2019,2000,g 16.0,8.0
# From NK 3013
51P-D/Harrington,e,5.4254,83.6780,269.2306,3.708835,0.1379900,0.54273152,219.9017,12/22.0/2019,2000,g 16.0,8.0
# From MPC 88330
52P/Harrington-Abell,e,10.2307,336.8378,139.6027,3.861868,0.1298697,0.53959189,275.1426,12/22.0/2019,2000,g 13.5,6.0
# From MPC100283
53P/Van Biesbroeck,e,6.6074,148.8525,134.3564,5.423228,0.0780400,0.55234742,103.8117,12/22.0/2019,2000,g  7.7,4.8
# From MPC 89011
54P/de Vico-Swift-NEAT,e,6.0599,358.8188,1.7702,3.793935,0.1333734,0.42513490,130.7642,12/22.0/2019,2000,g  9.0,4.0
# From MPC 31070
55P/Tempel-Tuttle,e,162.3606,235.4044,172.5578,10.34561,0.0296190,0.90685773,236.6234,12/22.0/2019,2000,g  9.0,4.0
# From MPC101100
56P/Slaughter-Burnham,e,8.1552,345.9762,44.0548,5.073516,0.0862463,0.50651340,107.9714,12/22.0/2019,2000,g  8.5,6.0
# From MPC 98565
57P/du Toit-Neujmin-Delporte,e,2.8497,188.7834,115.1920,3.447755,0.1539570,0.50062854,257.5497,12/22.0/2019,2000,g 12.5,6.0
# From NK 778
58P/Jackson-Neujmin,e,13.1002,159.0711,200.4550,4.083779,0.1194292,0.66268892,341.4836,12/22.0/2019,2000,g  9.0,4.0
# From MPC111774
59P/Kearns-Kwee,e,9.3411,312.8293,127.6536,4.491049,0.1035577,0.47490528,47.7796,12/22.0/2019,2000,g  7.0,6.0
# From MPEC 2015-M77
60P/Tsuchinshan,e,3.6066,267.5819,216.6249,3.512292,0.1497332,0.53766956,56.2548,12/22.0/2019,2000,g  9.0,4.0
# From MPEC 2015-Q71
61P/Shajn-Schaldach,e,5.9991,162.9924,221.9264,3.684163,0.1393785,0.42382909,215.3370,12/22.0/2019,2000,g  6.0,10.0
# From MPC109147
62P/Tsuchinshan,e,9.7167,90.1203,29.9142,3.420887,0.1557744,0.61390401,117.4850,12/22.0/2019,2000,g  8.0,10.0
# From MPC 84320
63P/Wild,e,19.7455,358.0136,169.1682,5.603704,0.0743004,0.64931405,181.9599,12/22.0/2019,2000,g 10.5,6.0
# From MPC111774
64P/Swift-Gehrels,e,8.9500,299.9988,97.1216,4.456174,0.1047758,0.68748850,43.2841,12/22.0/2019,2000,g  9.5,12.0
# From MPC104795
65P/Gunn,e,9.1841,62.0228,213.7341,3.883104,0.1288058,0.24999922,102.4513,12/22.0/2019,2000,g  5.0,6.0
# From MPC109147
66P/du Toit,e,18.6667,21.8853,257.2642,6.060161,0.0660660,0.78698542,38.4368,12/22.0/2019,2000,g  9.0,4.0
# From MPC 89011
67P/Churyumov-Gerasimenko,e,3.9216,37.4029,21.4404,3.448002,0.1539405,0.65451630,255.4878,12/22.0/2019,2000,g 11.0,4.0
# From MPC 75716
68P/Klemola,e,11.1109,175.0822,153.0597,4.948499,0.0895352,0.63749531,3.8464,12/22.0/2019,2000,g 10.0,4.0
# From MPC114607
69P/Taylor,e,22.0330,104.8306,343.5420,3.890616,0.1284330,0.41313335,35.7849,12/22.0/2019,2000,g  9.5,12.0
# From MPC 92276
70P/Kojima,e,6.5982,119.2678,1.8705,3.674939,0.1399036,0.45325806,264.5328,12/22.0/2019,2000,g 11.0,6.0
# From MPC107051
71P/Clark,e,9.4428,59.4423,208.9958,3.138017,0.1773051,0.49426776,160.3769,12/22.0/2019,2000,g  9.8,6.0
# From MPC 89011
72P/Denning-Fujikawa,e,10.9253,26.6919,346.6663,4.311975,0.1100752,0.81784066,219.9134,12/22.0/2019,2000,g 17.5,10.0
# From MPC106348
73P/Schwassmann-Wachmann,e,11.2361,69.6547,199.4274,3.093118,0.1811797,0.68574758,182.9456,12/22.0/2019,2000,g 11.5,6.0
# From MPC106348
73P-T/Schwassmann-Wachmann,e,11.2382,69.6573,199.4088,3.094677,0.1810427,0.68595085,182.8082,12/22.0/2019,2000,g 11.5,6.0
# From MPC102956
74P/Smirnova-Chernykh,e,6.6449,77.0519,89.0439,4.184651,0.1151371,0.15253145,78.4958,12/22.0/2019,2000,g  5.0,6.0
# From MPC118097
76P/West-Kohoutek-Ikemura,e,30.4569,84.1250,0.0211,3.475124,0.1521418,0.53820495,8.6503,12/22.0/2019,2000,g  8.0,12.0
# From MPC100283
77P/Longmore,e,24.3302,14.8051,196.8676,3.619765,0.1431145,0.35268217,188.5727,12/22.0/2019,2000,g  7.0,8.0
# From MPEC 2016-U66
78P/Gehrels,e,6.2485,210.5423,192.6717,3.740556,0.1362385,0.46167719,35.8763,12/22.0/2019,2000,g  9.0,4.0
# From MPC 94675
79P/du Toit-Hartley,e,3.1480,280.5252,281.8275,2.942831,0.1952343,0.61911344,90.7305,12/22.0/2019,2000,g 16.0,4.0
# From MPEC 2014-P41
80P/Peters-Hartley,e,29.9475,259.8220,339.2476,4.024286,0.1220874,0.59924568,227.8685,12/22.0/2019,2000,g  9.0,4.0
# From MPC105241
81P/Wild,e,3.2372,136.1099,41.7246,3.449839,0.1538176,0.53736623,192.3691,12/22.0/2019,2000,g  7.0,6.0
# From MPC 75717
82P/Gehrels,e,1.1283,239.3153,226.9838,4.138067,0.1170868,0.12189094,63.5598,12/22.0/2019,2000,g  5.0,8.0
# From MPC105241
84P/Giclas,e,7.5522,108.1746,281.5486,3.547978,0.1474799,0.51551365,335.6974,12/22.0/2019,2000,g  9.5,8.0
# From MPC109147
86P/Wild,e,15.4762,72.3784,179.2908,3.604543,0.1440220,0.37266382,247.9224,12/22.0/2019,2000,g 11.0,6.0
# From MPC105241
87P/Bus,e,2.6023,181.8622,24.9207,3.438047,0.1546096,0.38922697,338.4745,12/22.0/2019,2000,g  7.2,10.0
# From MPEC 2019-JE2
88P/Howell,e,4.3838,56.6862,235.9128,3.105335,0.1801115,0.56423540,309.6346,12/22.0/2019,2000,g 11.0,6.0
# From MPC100283
89P/Russell,e,12.0721,41.4259,250.2394,3.753884,0.1355136,0.40865885,149.2815,12/22.0/2019,2000,g 11.5,6.0
# From MPC107051
90P/Gehrels,e,9.6385,13.2210,29.1441,6.057282,0.0661131,0.50946174,60.5728,12/22.0/2019,2000,g  8.5,6.0
# From MPC105241
91P/Russell,e,14.0916,247.8296,354.7582,3.890870,0.1284204,0.33060647,318.4895,12/22.0/2019,2000,g  7.5,6.0
# From MPEC 2014-J58
92P/Sanguin,e,19.4697,181.4004,163.7034,5.346330,0.0797298,0.66019764,139.9953,12/22.0/2019,2000,g 12.0,6.0
# From NK 2707
